{
  "type":"FeatureCollection",
  "features":[
    {"type":"Feature","geometry":{"type":"Point","coordinates":[106.8226,-6.2021]},"properties":{"file":"IMG_0201.MOV","type":"video","time_wib":"2026-06-18T10:37:43"}},
    {"type":"Feature","geometry":{"type":"Point","coordinates":[106.8226,-6.2021]},"properties":{"file":"IMG_0202.MOV","type":"video","time_wib":"2026-06-18T10:37:58"}},
    {"type":"Feature","geometry":{"type":"Point","coordinates":[106.8225,-6.202]},"properties":{"file":"IMG_0203.MOV","type":"video","time_wib":"2026-06-18T10:38:26"}},
    {"type":"Feature","geometry":{"type":"Point","coordinates":[106.8224,-6.2021]},"properties":{"file":"IMG_0205.MOV","type":"video","time_wib":"2026-06-18T10:39:00"}},
    {"type":"Feature","geometry":{"type":"Point","coordinates":[106.8226,-6.202]},"properties":{"file":"IMG_0206.MOV","type":"video","time_wib":"2026-06-18T10:41:04"}},
    {"type":"Feature","geometry":{"type":"Point","coordinates":[106.8225,-6.2018]},"properties":{"file":"IMG_0207.MOV","type":"video","time_wib":"2026-06-18T10:41:58"}},
    {"type":"Feature","geometry":{"type":"Point","coordinates":[106.8225,-6.2017]},"properties":{"file":"IMG_0208.MOV","type":"video","time_wib":"2026-06-18T10:42:14"}},
    {"type":"Feature","geometry":{"type":"Point","coordinates":[106.8226916666667,-6.201533333333334]},"properties":{"file":"IMG_3291.HEIC","type":"photo","time_wib":"2026-06-18T10:42:30"}},
    {"type":"Feature","geometry":{"type":"Point","coordinates":[106.8232633333333,-6.201466666666667]},"properties":{"file":"IMG_3292.HEIC","type":"photo","time_wib":"2026-06-18T10:42:32"}},
    {"type":"Feature","geometry":{"type":"Point","coordinates":[106.8236833333333,-6.201513333333334]},"properties":{"file":"IMG_3293.HEIC","type":"photo","time_wib":"2026-06-18T10:42:33"}},
    {"type":"Feature","geometry":{"type":"Point","coordinates":[106.8225,-6.2016]},"properties":{"file":"IMG_0209.MOV","type":"video","time_wib":"2026-06-18T10:42:41"}},
    {"type":"Feature","geometry":{"type":"Point","coordinates":[106.8303966666667,-6.198658333333333]},"properties":{"file":"IMG_3294.HEIC","type":"photo","time_wib":"2026-06-18T10:42:44"}},
    {"type":"Feature","geometry":{"type":"Point","coordinates":[106.8225783333333,-6.201458333333333]},"properties":{"file":"IMG_0210.HEIC","type":"photo","time_wib":"2026-06-18T10:43:23"}},
    {"type":"Feature","geometry":{"type":"Point","coordinates":[106.8226166666667,-6.201425]},"properties":{"file":"IMG_3295.HEIC","type":"photo","time_wib":"2026-06-18T10:43:24"}},
    {"type":"Feature","geometry":{"type":"Point","coordinates":[106.8226,-6.2015]},"properties":{"file":"IMG_0211.MOV","type":"video","time_wib":"2026-06-18T10:43:27"}},
    {"type":"Feature","geometry":{"type":"Point","coordinates":[106.82263,-6.20143]},"properties":{"file":"IMG_3296.HEIC","type":"photo","time_wib":"2026-06-18T10:43:29"}},
    {"type":"Feature","geometry":{"type":"Point","coordinates":[106.8226,-6.2014]},"properties":{"file":"IMG_0212.MOV","type":"video","time_wib":"2026-06-18T10:43:39"}},
    {"type":"Feature","geometry":{"type":"Point","coordinates":[106.8226,-6.2014]},"properties":{"file":"IMG_0213.MOV","type":"video","time_wib":"2026-06-18T10:43:44"}},
    {"type":"Feature","geometry":{"type":"Point","coordinates":[106.8226,-6.2014]},"properties":{"file":"IMG_3297.MOV","type":"video","time_wib":"2026-06-18T10:43:51"}},
    {"type":"Feature","geometry":{"type":"Point","coordinates":[106.8226,-6.2014]},"properties":{"file":"IMG_0214.MOV","type":"video","time_wib":"2026-06-18T10:44:19"}},
    {"type":"Feature","geometry":{"type":"Point","coordinates":[106.8227,-6.2014]},"properties":{"file":"IMG_0215.MOV","type":"video","time_wib":"2026-06-18T10:45:10"}},
    {"type":"Feature","geometry":{"type":"Point","coordinates":[106.8227,-6.2015]},"properties":{"file":"IMG_0216.MOV","type":"video","time_wib":"2026-06-18T10:45:29"}},
    {"type":"Feature","geometry":{"type":"Point","coordinates":[106.8227083333333,-6.201645]},"properties":{"file":"IMG_3298.HEIC","type":"photo","time_wib":"2026-06-18T10:45:33"}},
    {"type":"Feature","geometry":{"type":"Point","coordinates":[106.8227,-6.2016]},"properties":{"file":"IMG_0217.MOV","type":"video","time_wib":"2026-06-18T10:45:37"}},
    {"type":"Feature","geometry":{"type":"Point","coordinates":[106.8226916666667,-6.201653333333334]},"properties":{"file":"IMG_3299.HEIC","type":"photo","time_wib":"2026-06-18T10:45:37"}},
    {"type":"Feature","geometry":{"type":"Point","coordinates":[106.8227,-6.2017]},"properties":{"file":"IMG_3300.MOV","type":"video","time_wib":"2026-06-18T10:45:45"}},
    {"type":"Feature","geometry":{"type":"Point","coordinates":[106.8227,-6.2016]},"properties":{"file":"IMG_3301.MOV","type":"video","time_wib":"2026-06-18T10:45:50"}},
    {"type":"Feature","geometry":{"type":"Point","coordinates":[106.8227,-6.2016]},"properties":{"file":"IMG_3302.MOV","type":"video","time_wib":"2026-06-18T10:46:10"}},
    {"type":"Feature","geometry":{"type":"Point","coordinates":[106.8228,-6.2014]},"properties":{"file":"IMG_0218.MOV","type":"video","time_wib":"2026-06-18T10:46:17"}},
    {"type":"Feature","geometry":{"type":"Point","coordinates":[106.8228,-6.2017]},"properties":{"file":"IMG_0219.MOV","type":"video","time_wib":"2026-06-18T10:46:58"}},
    {"type":"Feature","geometry":{"type":"Point","coordinates":[106.8228,-6.2018]},"properties":{"file":"IMG_0220.MOV","type":"video","time_wib":"2026-06-18T10:47:21"}},
    {"type":"Feature","geometry":{"type":"Point","coordinates":[106.822845,-6.201836666666667]},"properties":{"file":"IMG_3303.HEIC","type":"photo","time_wib":"2026-06-18T10:47:29"}},
    {"type":"Feature","geometry":{"type":"Point","coordinates":[106.8228133333333,-6.201786666666667]},"properties":{"file":"IMG_3304.HEIC","type":"photo","time_wib":"2026-06-18T10:47:35"}},
    {"type":"Feature","geometry":{"type":"Point","coordinates":[106.8227,-6.202]},"properties":{"file":"IMG_0221.MOV","type":"video","time_wib":"2026-06-18T10:48:35"}},
    {"type":"Feature","geometry":{"type":"Point","coordinates":[106.8225,-6.2029]},"properties":{"file":"IMG_0222.MOV","type":"video","time_wib":"2026-06-18T10:50:48"}},
    {"type":"Feature","geometry":{"type":"Point","coordinates":[106.8223883333333,-6.203283333333333]},"properties":{"file":"IMG_3305.HEIC","type":"photo","time_wib":"2026-06-18T10:51:31"}},
    {"type":"Feature","geometry":{"type":"Point","coordinates":[106.8225,-6.2032]},"properties":{"file":"IMG_0223.MOV","type":"video","time_wib":"2026-06-18T10:51:32"}},
    {"type":"Feature","geometry":{"type":"Point","coordinates":[106.82238,-6.2033]},"properties":{"file":"IMG_3306.HEIC","type":"photo","time_wib":"2026-06-18T10:51:38"}},
    {"type":"Feature","geometry":{"type":"Point","coordinates":[106.8224,-6.2034]},"properties":{"file":"IMG_0224.MOV","type":"video","time_wib":"2026-06-18T10:51:53"}},
    {"type":"Feature","geometry":{"type":"Point","coordinates":[106.8223,-6.2037]},"properties":{"file":"IMG_0225.MOV","type":"video","time_wib":"2026-06-18T10:52:26"}},
    {"type":"Feature","geometry":{"type":"Point","coordinates":[106.8221966666667,-6.20383]},"properties":{"file":"IMG_3307.HEIC","type":"photo","time_wib":"2026-06-18T10:52:28"}},
    {"type":"Feature","geometry":{"type":"Point","coordinates":[106.8222,-6.2038]},"properties":{"file":"IMG_0226.MOV","type":"video","time_wib":"2026-06-18T10:52:33"}},
    {"type":"Feature","geometry":{"type":"Point","coordinates":[106.8221,-6.2038]},"properties":{"file":"IMG_3308.MOV","type":"video","time_wib":"2026-06-18T10:52:35"}},
    {"type":"Feature","geometry":{"type":"Point","coordinates":[106.8220666666667,-6.20432]},"properties":{"file":"IMG_3309.HEIC","type":"photo","time_wib":"2026-06-18T10:55:02"}},
    {"type":"Feature","geometry":{"type":"Point","coordinates":[106.822205,-6.204308333333334]},"properties":{"file":"IMG_0227.HEIC","type":"photo","time_wib":"2026-06-18T10:55:04"}},
    {"type":"Feature","geometry":{"type":"Point","coordinates":[106.8221,-6.2044]},"properties":{"file":"IMG_0228.MOV","type":"video","time_wib":"2026-06-18T10:55:07"}},
    {"type":"Feature","geometry":{"type":"Point","coordinates":[106.8221,-6.2042]},"properties":{"file":"IMG_0229.mov","type":"video","time_wib":"2026-06-18T10:57:47"}},
    {"type":"Feature","geometry":{"type":"Point","coordinates":[106.8222,-6.2043]},"properties":{"file":"IMG_0230.MOV","type":"video","time_wib":"2026-06-18T11:08:39"}},
    {"type":"Feature","geometry":{"type":"Point","coordinates":[106.8144916666667,-6.194455]},"properties":{"file":"IMG_0231.HEIC","type":"photo","time_wib":"2026-06-18T11:19:38"}},
    {"type":"Feature","geometry":{"type":"Point","coordinates":[106.8146,-6.1941]},"properties":{"file":"IMG_0232.MOV","type":"video","time_wib":"2026-06-18T11:19:41"}},
    {"type":"Feature","geometry":{"type":"Point","coordinates":[106.8227,-6.1943]},"properties":{"file":"IMG_0233.MOV","type":"video","time_wib":"2026-06-18T11:56:54"}},
    {"type":"Feature","geometry":{"type":"Point","coordinates":[106.823,-6.1925]},"properties":{"file":"IMG_0234.MOV","type":"video","time_wib":"2026-06-18T12:00:36"}},
    {"type":"Feature","geometry":{"type":"Point","coordinates":[106.8232033333333,-6.202003333333334]},"properties":{"file":"IMG_0235.HEIC","type":"photo","time_wib":"2026-06-18T12:13:12"}},
    {"type":"Feature","geometry":{"type":"Point","coordinates":[106.8232283333333,-6.20205]},"properties":{"file":"IMG_0236.HEIC","type":"photo","time_wib":"2026-06-18T12:13:19"}},
    {"type":"Feature","geometry":{"type":"Point","coordinates":[106.8233333333333,-6.202033333333334]},"properties":{"file":"IMG_0237.HEIC","type":"photo","time_wib":"2026-06-18T12:17:28"}},
    {"type":"Feature","geometry":{"type":"Point","coordinates":[106.8232,-6.2023]},"properties":{"file":"IMG_0238.MOV","type":"video","time_wib":"2026-06-18T12:19:44"}},
    {"type":"Feature","geometry":{"type":"Point","coordinates":[106.8231,-6.2023]},"properties":{"file":"IMG_0239.MOV","type":"video","time_wib":"2026-06-18T12:20:18"}},
    {"type":"Feature","geometry":{"type":"Point","coordinates":[106.8231,-6.2023]},"properties":{"file":"IMG_0240.MOV","type":"video","time_wib":"2026-06-18T12:21:06"}},
    {"type":"Feature","geometry":{"type":"Point","coordinates":[106.823045,-6.202353333333333]},"properties":{"file":"IMG_3318.HEIC","type":"photo","time_wib":"2026-06-18T12:21:48"}},
    {"type":"Feature","geometry":{"type":"Point","coordinates":[106.8225866666667,-6.20462]},"properties":{"file":"IMG_0241.HEIC","type":"photo","time_wib":"2026-06-18T12:32:15"}},
    {"type":"Feature","geometry":{"type":"Point","coordinates":[106.822625,-6.204586666666667]},"properties":{"file":"IMG_3319.HEIC","type":"photo","time_wib":"2026-06-18T12:32:17"}},
    {"type":"Feature","geometry":{"type":"Point","coordinates":[106.8226,-6.2047]},"properties":{"file":"IMG_0242.MOV","type":"video","time_wib":"2026-06-18T12:32:41"}},
    {"type":"Feature","geometry":{"type":"Point","coordinates":[106.8225,-6.2052]},"properties":{"file":"IMG_0243.MOV","type":"video","time_wib":"2026-06-18T12:35:39"}},
    {"type":"Feature","geometry":{"type":"Point","coordinates":[106.8226,-6.2052]},"properties":{"file":"IMG_0244.MOV","type":"video","time_wib":"2026-06-18T12:37:48"}},
    {"type":"Feature","geometry":{"type":"Point","coordinates":[106.8223,-6.2056]},"properties":{"file":"IMG_0245.MOV","type":"video","time_wib":"2026-06-18T12:39:09"}},
    {"type":"Feature","geometry":{"type":"Point","coordinates":[106.8225,-6.2058]},"properties":{"file":"IMG_0246.MOV","type":"video","time_wib":"2026-06-18T12:39:28"}},
    {"type":"Feature","geometry":{"type":"Point","coordinates":[106.8222,-6.2076]},"properties":{"file":"IMG_0247.MOV","type":"video","time_wib":"2026-06-18T12:45:36"}},
    {"type":"Feature","geometry":{"type":"Point","coordinates":[106.8214,-6.2076]},"properties":{"file":"IMG_3320.MOV","type":"video","time_wib":"2026-06-18T12:45:47"}},
    {"type":"Feature","geometry":{"type":"Point","coordinates":[106.82232,-6.207936666666667]},"properties":{"file":"IMG_0248.HEIC","type":"photo","time_wib":"2026-06-18T12:46:44"}},
    {"type":"Feature","geometry":{"type":"Point","coordinates":[106.8219916666667,-6.207978333333333]},"properties":{"file":"IMG_0249.HEIC","type":"photo","time_wib":"2026-06-18T12:47:03"}},
    {"type":"Feature","geometry":{"type":"Point","coordinates":[106.822205,-6.207958333333333]},"properties":{"file":"IMG_0250.HEIC","type":"photo","time_wib":"2026-06-18T12:47:04"}},
    {"type":"Feature","geometry":{"type":"Point","coordinates":[106.8177,-6.2156]},"properties":{"file":"IMG_0251.MOV","type":"video","time_wib":"2026-06-18T13:02:54"}},
    {"type":"Feature","geometry":{"type":"Point","coordinates":[106.8174,-6.2156]},"properties":{"file":"IMG_3324.MOV","type":"video","time_wib":"2026-06-18T13:03:30"}},
    {"type":"Feature","geometry":{"type":"Point","coordinates":[106.8176,-6.2157]},"properties":{"file":"IMG_0252.MOV","type":"video","time_wib":"2026-06-18T13:03:32"}},
    {"type":"Feature","geometry":{"type":"Point","coordinates":[106.816795,-6.216203333333334]},"properties":{"file":"IMG_3328.HEIC","type":"photo","time_wib":"2026-06-18T13:05:55"}},
    {"type":"Feature","geometry":{"type":"Point","coordinates":[106.8168116666667,-6.216203333333334]},"properties":{"file":"IMG_3329.HEIC","type":"photo","time_wib":"2026-06-18T13:06:01"}},
    {"type":"Feature","geometry":{"type":"Point","coordinates":[106.8169,-6.2162]},"properties":{"file":"IMG_0253.MOV","type":"video","time_wib":"2026-06-18T13:06:09"}},
    {"type":"Feature","geometry":{"type":"Point","coordinates":[106.8168,-6.2162]},"properties":{"file":"IMG_0254.MOV","type":"video","time_wib":"2026-06-18T13:06:41"}},
    {"type":"Feature","geometry":{"type":"Point","coordinates":[106.8168116666667,-6.216195]},"properties":{"file":"IMG_3330.HEIC","type":"photo","time_wib":"2026-06-18T13:06:42"}},
    {"type":"Feature","geometry":{"type":"Point","coordinates":[106.8168416666667,-6.2162]},"properties":{"file":"IMG_3331.HEIC","type":"photo","time_wib":"2026-06-18T13:06:54"}},
    {"type":"Feature","geometry":{"type":"Point","coordinates":[106.8168116666667,-6.21622]},"properties":{"file":"IMG_3332.HEIC","type":"photo","time_wib":"2026-06-18T13:07:33"}},
    {"type":"Feature","geometry":{"type":"Point","coordinates":[106.8168116666667,-6.216205]},"properties":{"file":"IMG_3333.HEIC","type":"photo","time_wib":"2026-06-18T13:07:46"}},
    {"type":"Feature","geometry":{"type":"Point","coordinates":[106.8164,-6.2165]},"properties":{"file":"IMG_0255.MOV","type":"video","time_wib":"2026-06-18T13:08:43"}},
    {"type":"Feature","geometry":{"type":"Point","coordinates":[106.8154,-6.2168]},"properties":{"file":"IMG_0256.MOV","type":"video","time_wib":"2026-06-18T13:10:12"}},
    {"type":"Feature","geometry":{"type":"Point","coordinates":[106.8156,-6.2173]},"properties":{"file":"IMG_0257.MOV","type":"video","time_wib":"2026-06-18T13:12:33"}},
    {"type":"Feature","geometry":{"type":"Point","coordinates":[106.8155,-6.2173]},"properties":{"file":"IMG_0258.MOV","type":"video","time_wib":"2026-06-18T13:13:15"}},
    {"type":"Feature","geometry":{"type":"Point","coordinates":[106.8156,-6.2172]},"properties":{"file":"IMG_0259.MOV","type":"video","time_wib":"2026-06-18T13:13:29"}},
    {"type":"Feature","geometry":{"type":"Point","coordinates":[106.8156,-6.2168]},"properties":{"file":"IMG_0260.MOV","type":"video","time_wib":"2026-06-18T13:14:36"}},
    {"type":"Feature","geometry":{"type":"Point","coordinates":[106.8157,-6.2164]},"properties":{"file":"IMG_0261.MOV","type":"video","time_wib":"2026-06-18T13:14:47"}},
    {"type":"Feature","geometry":{"type":"Point","coordinates":[106.8157,-6.2164]},"properties":{"file":"IMG_0262.MOV","type":"video","time_wib":"2026-06-18T13:15:03"}},
    {"type":"Feature","geometry":{"type":"Point","coordinates":[106.8156,-6.2164]},"properties":{"file":"IMG_0263.MOV","type":"video","time_wib":"2026-06-18T13:15:33"}},
    {"type":"Feature","geometry":{"type":"Point","coordinates":[106.8155,-6.2169]},"properties":{"file":"IMG_0264.MOV","type":"video","time_wib":"2026-06-18T13:15:44"}},
    {"type":"Feature","geometry":{"type":"Point","coordinates":[106.8153,-6.2171]},"properties":{"file":"IMG_0265.MOV","type":"video","time_wib":"2026-06-18T13:17:21"}},
    {"type":"Feature","geometry":{"type":"Point","coordinates":[106.81028,-6.221086666666666]},"properties":{"file":"IMG_3335.HEIC","type":"photo","time_wib":"2026-06-18T13:19:57"}},
    {"type":"Feature","geometry":{"type":"Point","coordinates":[106.809945,-6.221333333333333]},"properties":{"file":"IMG_0266.HEIC","type":"photo","time_wib":"2026-06-18T13:21:07"}},
    {"type":"Feature","geometry":{"type":"Point","coordinates":[106.8099,-6.2213]},"properties":{"file":"IMG_0267.MOV","type":"video","time_wib":"2026-06-18T13:21:10"}},
    {"type":"Feature","geometry":{"type":"Point","coordinates":[106.8095,-6.2219]},"properties":{"file":"IMG_0268.MOV","type":"video","time_wib":"2026-06-18T13:24:01"}},
    {"type":"Feature","geometry":{"type":"Point","coordinates":[106.8093,-6.2222]},"properties":{"file":"IMG_0269.MOV","type":"video","time_wib":"2026-06-18T13:25:06"}},
    {"type":"Feature","geometry":{"type":"Point","coordinates":[106.8091,-6.2226]},"properties":{"file":"IMG_0270.MOV","type":"video","time_wib":"2026-06-18T13:34:01"}},
    {"type":"Feature","geometry":{"type":"Point","coordinates":[106.8089,-6.2225]},"properties":{"file":"IMG_0271.MOV","type":"video","time_wib":"2026-06-18T13:34:58"}},
    {"type":"Feature","geometry":{"type":"Point","coordinates":[106.8081,-6.2229]},"properties":{"file":"IMG_0272.MOV","type":"video","time_wib":"2026-06-18T13:37:36"}},
    {"type":"Feature","geometry":{"type":"Point","coordinates":[106.8085416666667,-6.222813333333334]},"properties":{"file":"IMG_3339.HEIC","type":"photo","time_wib":"2026-06-18T13:38:17"}},
    {"type":"Feature","geometry":{"type":"Point","coordinates":[106.8085416666667,-6.222745]},"properties":{"file":"IMG_3340.HEIC","type":"photo","time_wib":"2026-06-18T13:40:29"}},
    {"type":"Feature","geometry":{"type":"Point","coordinates":[106.8086,-6.2229]},"properties":{"file":"IMG_3341.MOV","type":"video","time_wib":"2026-06-18T13:42:53"}},
    {"type":"Feature","geometry":{"type":"Point","coordinates":[106.8086383333333,-6.222871666666666]},"properties":{"file":"IMG_3342.HEIC","type":"photo","time_wib":"2026-06-18T13:45:14"}}
  ]
}
